#dP2018  2  8  0  0  0.00000000      96 __u+U ITR00 FIT  IAC
## 1987 345600.00000000   900.00000000 58157 0.0000000000000
+   88   C01C02C03C04C05C06C07C08C09C10C11C12C13C14E01E02E03
+        E04E05E07E08E09E11E12E14E18E19E24E26E30G01G02G03G04
+        G05G06G07G08G09G10G11G12G13G14G15G16G17G19G20G21G22
+        G23G24G25G26G27G28G29G30G31G32J01J02J03R01R02R03R04
+        R05R06R07R08R09R10R11R13R14R15R16R17R18R19R20R21R22
+        R23R24R26  0  0  0  0  0  0  0  0  0  0  0  0  0  0
++         0  0  0  0  0  0  0  0  0  0  0  0  0  0  0  0  0
++         0  0  0  0  0  0  0  0  0  0  0  0  0  0  0  0  0
++         0  0  0  0  0  0  0  0  0  0  0  0  0  0  0  0  0
++         0  0  0  0  0  0  0  0  0  0  0  0  0  0  0  0  0
++         0  0  0  0  0  0  0  0  0  0  0  0  0  0  0  0  0
++         0  0  0  0  0  0  0  0  0  0  0  0  0  0  0  0  0
%c M  cc GPS ccc cccc cccc cccc cccc ccccc ccccc ccccc ccccc
%c cc cc ccc ccc cccc cccc cccc cccc ccccc ccccc ccccc ccccc
%f  0.0000000  0.000000000  0.00000000000  0.000000000000000
%f  0.0000000  0.000000000  0.00000000000  0.000000000000000
%i    0    0    0    0      0      0      0      0         0
%i    0    0    0    0      0      0      0      0         0
/*                                                          
/*   RSA / INFORMATION & ANALYSIS CENTER (IAC) OF MCC       
/*   ULTRA-RAPID DETERMINATION                              
/* PCV:IGS14_1984 OL/AL:FES2004  NONE     YN ORB:CoN CLK:CoN
*  2018 02 08  1 15  0.00000000
PC01 -32306.499151  27069.076173  -1084.118687    339.423997
PC02   4439.816724  41922.598496    414.713220   -210.766196
PC03 -14721.008337  39496.105891   -877.657038   -133.297160
PC04 -39617.316709  14357.208067   -526.248678   -120.330294
PC05  21970.730424  35984.395637    651.722215   -144.521759
PC06  -9396.106957  23393.955665  34058.034817   -679.938322
PC07 -25185.945264  28917.981044 -17859.277097   -303.472679
PC08 -11160.796018  38053.507093 -13943.274532    162.439406
PC09   5112.877858  30053.850320  29396.188159   -424.979479
PC10 -11307.870893  29934.654257 -27505.437805     -0.574775
PC11 -12145.844399  10615.181693 -22698.810661   -383.123309
PC12 -17585.069689 -10786.141593 -18775.411421    378.613293
PC13  -2672.006196  41951.894355   -647.763980   -192.411808
PC14 -23245.703357   6476.622102  14014.130117    194.346554
PE01  22705.944363    623.499882 -18982.330472   -271.588582
PE02 -22705.440159   -615.677309  18973.042700      4.056739
PE03 -27006.106760 -11225.025904   4595.769989      3.376890
PE04  21410.477097  -4375.063785 -19968.391651     28.391010
PE05 -16787.783356 -20290.982722 -13514.099800    326.256073
PE07  -3230.325052  17466.642798  23679.977929     88.074461
PE08 -21334.286753   4457.324656  20031.875348   6646.070470
PE09   3040.396382 -17350.535769 -23787.339268   6881.131492
PE11   4540.562766 -28145.713086   7932.831290   1850.159695
PE12  14536.715080 -13280.206750  22108.248131   3458.335679
PE14  18919.517591  16498.506479   8833.147539   6634.684447
PE18 -22292.321361  -4033.708728 -20585.425206   6444.201781
PE19  26732.133885  12412.062772  -2789.016525     19.187418
PE24  13810.130812 -20625.630769  16133.890920   6874.147312
PE26   7844.418608  26509.778273  10580.915643   6295.366342
PE30 -25908.776431  14171.989694   1894.356267   6094.973385
PG01  13760.126360 -21965.062732   4912.276478    -27.627295
PG02 -16417.453172   2440.048889 -20127.289444    206.429023
PG03  16939.903054 -12847.214326 -15905.153069      4.924857
PG04  19693.050678   9149.207671 -15727.064621     36.337762
PG05 -26554.233099   1977.425131  -1662.938270    -14.881986
PG06 -11257.744344 -10827.357892 -21445.197872    414.694496
PG07   3584.860740 -24130.628604  10142.470311    240.014426
PG08  13369.267929  -7194.492575  21858.154374    -90.415281
PG09  -5054.076910 -22560.080313 -13103.754726    499.427313
PG10  15099.469272  11541.233402  18646.494662    157.084199
PG11   9656.408347 -21391.811976  12004.230085   -735.833363
PG12 -19175.880407  10637.323193 -15013.116495    351.452577
PG13 -17113.015282  -2469.986871  20039.934697    -95.566719
PG14  18184.328302  16605.919334  -9889.817458    -93.623409
PG15 -13013.665505   9079.156087  21104.214339   -357.107375
PG16  26771.004261    271.211167  -1187.902632     32.676942
PG17 -15179.300384 -21815.743411  -1340.024080   -124.926345
PG19 -17609.800029 -17388.396788  -9639.552286   -458.550460
PG20 -17514.763411  14217.022584  13840.801563    500.346161
PG21    304.642759  23824.720505  12503.831138   -432.923355
PG22  22326.425205 -10667.751109  -9431.024665   -284.042974
PG23   6053.136398 -16073.904830 -19883.219944   -218.997788
PG24 -14610.393276  20430.364282   8069.881707    -45.781621
PG25  -5772.672092  15018.673069 -21252.287817   -535.188243
PG26  23421.862974   5382.021405 -11448.758382   -258.496235
PG27  19108.637792   6320.783732  17397.168558    366.267598
PG28 -10657.159901 -13583.926473  20801.244779    686.818566
PG29    608.690983  21097.435613 -16146.209653    499.659563
PG30  -2840.510993 -20506.527231  16556.926389    105.563970
PG31  12002.356855   9559.926524 -21595.647280    143.248525
PG32  16679.646431  20635.964074  -1843.083176   -532.653154
PJ01 -29974.555050  24891.920441  21254.058652   -116.008935
PJ02 -33095.308355  25678.250164   8942.999794     -0.072142
PJ03 -21965.475996  19917.665330 -25337.529243     -0.044742
PR01  -2852.499994 -12292.290296 -22173.338491     21.770307
PR02 -20326.096635 -12017.079742  -9556.337485    294.135867
PR03 -23799.842549  -4329.362473   8063.269164    123.537488
PR04 -12975.527806   6098.113275  21104.055341    249.070802
PR05   4653.758596  12631.398298  21652.743646   -244.049148
PR06  21011.418541  11550.603626   8730.851593    126.618563
PR07  23748.288429   4196.014889  -8334.588822    -29.530027
PR08  13586.245379  -5698.796496 -20777.524426    -27.043835
PR09   8784.860473   7019.719497 -22880.558069     47.943970
PR10  19428.353155  -7365.740310 -14766.663247     17.741334
PR11  18672.808907 -17168.089280   2523.112034    -21.309377
PR13  -9372.565296  -6046.781993  22920.354565     -7.268030
PR14 -19453.044311   7131.266701  14892.501890     24.515699
PR15 -19839.545469  15903.359977   1119.675272     -6.158621
PR16  -7018.143933  17123.956398 -17518.359312     85.094833
PR17 -11265.699220  -3519.836068 -22601.532404    107.420895
PR18  -6633.352944  14564.444867 -19864.989720    184.025368
PR19   1305.440230  24806.536146  -5794.716142    -43.927440
PR20   9052.767103  20187.516120  12755.916058   -326.371441
PR21  11171.263097   3195.134573  22713.040147     22.108406
PR22   5935.455052 -15976.341805  18934.871959    -16.960808
PR23  -3350.983647 -25170.040790   2408.981914    134.950698
PR24  -9613.706287 -19516.148540 -13321.715552   -162.162757
PR26   9420.202167  20067.528173  12615.904182 999999.999999
EOF
